     2.11           N: GPS NAV DATA                         RINEX VERSION / TYPE
teqc  2016Nov7                          20170625 00:02:49UTCPGM / RUN BY / DATE
    4.6566D-09  1.4901D-08 -5.9605D-08 -1.1921D-07          ION ALPHA
    8.1920D+04  9.8304D+04 -6.5536D+04 -5.2429D+05          ION BETA
   -2.793967723846D-09-7.105427357601D-15    61440     1955 DELTA-UTC: A0,A1,T,W
    18                                                      LEAP SECONDS
Linux 2.4.21-27.ELsmp|Opteron|gcc -static|Linux x86_64|=+   COMMENT
teqc  2016Nov7                          20170625 00:02:43UTCCOMMENT
     2.10           N: GPS NAV DATA                         COMMENT
sbf2rin-11.3.2                          24-JUN-17 01:02     COMMENT
                                                            END OF HEADER
14 17  6 24 22  0  0.0-7.549021393061D-05-1.250555214938D-12 0.000000000000D+00
    9.800000000000D+01-3.096875000000D+01 4.664837166335D-09-2.074533450817D+00
   -1.596286892891D-06 9.257717989385D-03 6.865710020065D-06 5.153653236389D+03
    5.976000000000D+05 1.639127731323D-07-7.296150050621D-01-1.136213541031D-07
    9.618331262447D-01 2.495312500000D+02-1.958313183582D+00-7.873542250353D-09
   -6.303834008561D-10 1.000000000000D+00 1.954000000000D+03 0.000000000000D+00
    2.000000000000D+00 0.000000000000D+00-9.313225746155D-09 9.800000000000D+01
    5.904180000000D+05 4.000000000000D+00
17 17  6 24 22  0  0.0-1.729456707835D-04 2.046363078989D-12 0.000000000000D+00
    2.200000000000D+01-1.250937500000D+02 4.366967616016D-09-1.767037829681D+00
   -6.221234798431D-06 1.164948404767D-02 2.715736627579D-06 5.153647907257D+03
    5.976000000000D+05 1.210719347000D-07 2.383089548582D+00 1.266598701477D-07
    9.802339819485D-01 3.327812500000D+02-1.847196326547D+00-8.104266146643D-09
   -2.035799084918D-10 1.000000000000D+00 1.954000000000D+03 0.000000000000D+00
    2.000000000000D+00 0.000000000000D+00-1.117587089539D-08 2.200000000000D+01
    5.904180000000D+05 4.000000000000D+00
 1 17  6 24 22  0  0.0 5.622534081340D-05 3.410605131648D-13 0.000000000000D+00
    6.600000000000D+01-9.500000000000D+01 4.081598586393D-09 2.376302448410D+00
   -4.980713129044D-06 6.816037464887D-03 1.236796379089D-05 5.153694608688D+03
    5.976000000000D+05-1.508742570877D-07-2.895231760173D+00-9.313225746155D-08
    9.681563716675D-01 1.459687500000D+02 5.667456391393D-01-7.612102788921D-09
    2.164375869228D-10 1.000000000000D+00 1.954000000000D+03 0.000000000000D+00
    2.000000000000D+00 0.000000000000D+00 5.587935447693D-09 6.600000000000D+01
    5.904180000000D+05 4.000000000000D+00
22 17  6 24 22  0  0.0-3.333203494549D-05-1.239186531166D-11 0.000000000000D+00
    2.500000000000D+01 3.993750000000D+01 5.612019477423D-09-2.328044284663D+00
    2.039596438408D-06 7.505152258091D-03 7.253140211105D-06 5.153791473389D+03
    5.976000000000D+05 5.401670932770D-08-1.900133445054D+00 7.264316082001D-08
    9.234005274298D-01 2.166875000000D+02-1.711511006778D+00-8.392135280405D-09
    5.614519581562D-10 1.000000000000D+00 1.954000000000D+03 0.000000000000D+00
    2.000000000000D+00 0.000000000000D+00-1.769512891769D-08 2.500000000000D+01
    5.904180000000D+05 4.000000000000D+00
11 17  6 24 22  0  0.0-6.976695731282D-04-2.614797267597D-12 0.000000000000D+00
    8.000000000000D+01-1.495312500000D+02 5.599518956726D-09 1.770878788393D+00
   -8.050352334976D-06 1.687094033696D-02 8.178874850273D-06 5.153726947784D+03
    5.976000000000D+05 2.346932888031D-07 2.983829824123D+00-3.091990947723D-07
    9.016199359751D-01 1.903437500000D+02 1.652470588193D+00-8.411064640318D-09
   -1.028614274485D-10 1.000000000000D+00 1.954000000000D+03 0.000000000000D+00
    2.800000000000D+00 0.000000000000D+00-1.210719347000D-08 8.000000000000D+01
    5.904180000000D+05 4.000000000000D+00
 3 17  6 24 21 59 44.0-9.246775880456D-05 2.614797267597D-12 0.000000000000D+00
    8.000000000000D+00 3.731250000000D+01 4.895561062626D-09 1.708263144314D+00
    1.968815922737D-06 7.603609701619D-04 7.288530468941D-06 5.153706874847D+03
    5.975840000000D+05 7.450580596924D-09-1.853065957647D+00 7.078051567078D-08
    9.595524398850D-01 2.371250000000D+02 1.059707457183D-01-8.151410967557D-09
    4.775198906202D-10 1.000000000000D+00 1.954000000000D+03 0.000000000000D+00
    2.000000000000D+00 0.000000000000D+00 2.328306436539D-09 8.000000000000D+00
    5.904180000000D+05 4.000000000000D+00
32 17  6 24 22  0  0.0-4.481258802116D-04-8.981260180008D-12 0.000000000000D+00
    7.200000000000D+01-2.746875000000D+01 4.919847788551D-09-1.126880579694D+00
   -1.532956957817D-06 1.329817692749D-03 6.407499313354D-06 5.153724361420D+03
    5.976000000000D+05 1.024454832077D-07-8.132877105719D-01-3.911554813385D-08
    9.576848684245D-01 2.585625000000D+02-2.550911958671D+00-8.148910863418D-09
   -6.396695019452D-10 1.000000000000D+00 1.954000000000D+03 0.000000000000D+00
    2.000000000000D+00 0.000000000000D+00 4.656612873077D-10 7.200000000000D+01
    5.904180000000D+05 4.000000000000D+00
28 17  6 24 22  0  0.0 6.236769258976D-04 3.069544618484D-12 0.000000000000D+00
    6.700000000000D+01 9.953125000000D+01 4.237319358502D-09-8.670033648216D-01
    5.541369318962D-06 1.972742762882D-02 2.462416887283D-06 5.153649700165D+03
    5.976000000000D+05-2.160668373108D-07 1.369747070915D+00 2.123415470123D-07
    9.881485501592D-01 3.551562500000D+02-1.567980019313D+00-8.470709981929D-09
    4.996636701403D-10 1.000000000000D+00 1.954000000000D+03 0.000000000000D+00
    4.000000000000D+00 0.000000000000D+00-1.117587089539D-08 6.700000000000D+01
    5.904180000000D+05 4.000000000000D+00
23 17  6 24 22  0  0.0-2.140821889043D-04-5.684341886081D-13 0.000000000000D+00
    5.600000000000D+01-3.212500000000D+01 5.120213277435D-09-3.110636410264D+00
   -1.790001988411D-06 1.183777896222D-02 6.487593054771D-06 5.153721879959D+03
    5.976000000000D+05-7.823109626770D-08-8.150549477958D-01-1.788139343262D-07
    9.440622849893D-01 2.435312500000D+02-2.447927809950D+00-8.134624554050D-09
   -6.121683564121D-10 1.000000000000D+00 1.954000000000D+03 0.000000000000D+00
    2.000000000000D+00 0.000000000000D+00-2.048909664154D-08 5.600000000000D+01
    5.904180000000D+05 4.000000000000D+00
19 17  6 24 22  0  0.0-4.983758553863D-04 1.591615728103D-12 0.000000000000D+00
    8.600000000000D+01-1.337187500000D+02 4.463757361983D-09 1.286307143467D+00
   -6.936490535736D-06 1.030043046921D-02 3.753229975700D-06 5.153672157288D+03
    5.976000000000D+05-2.458691596985D-07 2.430872026960D+00 1.192092895508D-07
    9.775546621155D-01 3.201562500000D+02 1.004061424011D+00-8.387135072127D-09
   -3.439428980308D-10 1.000000000000D+00 1.954000000000D+03 0.000000000000D+00
    2.000000000000D+00 0.000000000000D+00-1.536682248116D-08 8.600000000000D+01
    5.904180000000D+05 4.000000000000D+00
 8 17  6 24 22  0  0.0-6.424635648727D-05-1.250555214938D-12 0.000000000000D+00
    5.900000000000D+01-1.065000000000D+02 4.651979487904D-09-1.241939458209D+00
   -5.770474672318D-06 2.556697698310D-03 2.186745405197D-06 5.153654436111D+03
    5.976000000000D+05 2.235174179077D-08 2.325132188231D+00-9.685754776001D-08
    9.669457791615D-01 3.419375000000D+02-6.408496169303D-01-8.453923568421D-09
   -1.757216052245D-10 1.000000000000D+00 1.954000000000D+03 0.000000000000D+00
    2.000000000000D+00 0.000000000000D+00 5.122274160385D-09 5.900000000000D+01
    5.904180000000D+05 4.000000000000D+00
31 17  6 24 22  0  0.0 1.925788819790D-04-2.387423592154D-12 0.000000000000D+00
    3.700000000000D+01 8.175000000000D+01 3.818730494025D-09 1.531656636767D+00
    4.451721906662D-06 8.410294656642D-03 1.257471740246D-05 5.153731613159D+03
    5.976000000000D+05-7.450580596924D-08 2.725516211204D-01 1.881271600723D-07
    9.672065750304D-01 1.387187500000D+02-2.524856091534D-01-7.522456197638D-09
   -3.164417524977D-10 1.000000000000D+00 1.954000000000D+03 0.000000000000D+00
    2.000000000000D+00 0.000000000000D+00-1.350417733192D-08 3.700000000000D+01
    5.904420000000D+05 4.000000000000D+00
12 17  6 24 22  0  0.0 3.805872984231D-04-9.094947017729D-13 0.000000000000D+00
    4.600000000000D+01 1.266562500000D+02 4.106956785521D-09 1.137126821348D+00
    6.359070539474D-06 6.634171120822D-03 2.378597855568D-06 5.153765314102D+03
    5.976000000000D+05-5.587935447693D-08 1.346324162274D+00 1.490116119385D-08
    9.888898341566D-01 3.457812500000D+02 8.992767976425D-01-8.278201963197D-09
    4.018024509706D-10 1.000000000000D+00 1.954000000000D+03 0.000000000000D+00
    2.000000000000D+00 0.000000000000D+00-1.257285475731D-08 4.600000000000D+01
    5.925060000000D+05 4.000000000000D+00
 6 17  6 24 22  0  0.0 3.688130527735D-04 5.002220859751D-12 0.000000000000D+00
    4.800000000000D+01-9.925000000000D+01 4.091956160685D-09 2.425348710995D+00
   -4.949048161507D-06 7.311151130125D-04 1.305155456066D-05 5.153706476212D+03
    5.976000000000D+05 4.470348358154D-08-2.903600368416D+00-2.980232238770D-08
    9.679266145315D-01 1.282812500000D+02-1.039665115231D+00-7.719964424648D-09
    1.682212928064D-10 1.000000000000D+00 1.954000000000D+03 0.000000000000D+00
    2.000000000000D+00 0.000000000000D+00 4.656612873077D-09 4.800000000000D+01
    5.929080000000D+05 4.000000000000D+00
 4 17  6 24 21 59 44.0-1.822039484978D-05 2.273736754432D-13 0.000000000000D+00
    2.800000000000D+01 1.029375000000D+02 3.315495246542D-09-3.012873174787D+00
    5.254521965981D-06 1.654830097686D-02 1.273863017559D-05 5.153663516998D+03
    5.975840000000D+05-1.490116119385D-08 3.863149072008D-01-1.881271600723D-07
    9.862219865272D-01 1.440625000000D+02-2.425613646922D+00-7.164584147973D-09
   -1.714357124141D-11 1.000000000000D+00 1.954000000000D+03 0.000000000000D+00
    2.000000000000D+00 6.300000000000D+01-5.122274160385D-09 2.800000000000D+01
    5.930880000000D+05 4.000000000000D+00
